$$SOE
2460728.500000000, A.D. 2025-Feb-22 00:00:00.0000, -3.459321163519480E+08, 1.541574608910777E+06, -3.412115954715054E+07,
2460735.500000000, A.D. 2025-Mar-01 00:00:00.0000, -3.462916899645023E+08, -1.086028017150539E+07, -3.205042490578793E+07,
2460742.500000000, A.D. 2025-Mar-08 00:00:00.0000, -3.462522019212312E+08, -2.324966469095665E+07, -2.994275520510548E+07,
2460749.500000000, A.D. 2025-Mar-15 00:00:00.0000, -3.458149979678242E+08, -3.561238984105811E+07, -2.780069210780255E+07,
2460756.500000000, A.D. 2025-Mar-22 00:00:00.0000, -3.449820526510135E+08, -4.793440600706381E+07, -2.562681442446087E+07,
2460763.500000000, A.D. 2025-Mar-29 00:00:00.0000, -3.437559573044730E+08, -6.020183840167506E+07, -2.342373123355284E+07,
2460770.500000000, A.D. 2025-Apr-05 00:00:00.0000, -3.421399040781221E+08, -7.240102014021221E+07, -2.119407508936963E+07,
2460777.500000000, A.D. 2025-Apr-12 00:00:00.0000, -3.401376680719541E+08, -8.451852278604355E+07, -1.894049517355282E+07,
2460784.500000000, A.D. 2025-Apr-19 00:00:00.0000, -3.377535879211108E+08, -9.654118510930210E+07, -1.666565048839432E+07,
2460791.500000000, A.D. 2025-Apr-26 00:00:00.0000, -3.349925447460161E+08, -1.084561401431402E+08, -1.437220317730484E+07,
2460798.500000000, A.D. 2025-May-03 00:00:00.0000, -3.318599395540685E+08, -1.202508404135325E+08, -1.206281202192726E+07,
2460805.500000000, A.D. 2025-May-10 00:00:00.0000, -3.283616692687272E+08, -1.319130812447828E+08, -9.740126153351761E+06,
2460812.500000000, A.D. 2025-May-17 00:00:00.0000, -3.245041015526969E+08, -1.434310221116813E+08, -7.406779014689773E+06,
2460819.500000000, A.D. 2025-May-24 00:00:00.0000, -3.202940484519389E+08, -1.547932060439336E+08, -5.065382621625997E+06,
2460826.500000000, A.D. 2025-May-31 00:00:00.0000, -3.157387386397709E+08, -1.659885767444712E+08, -2.718522156315312E+06,
2460833.500000000, A.D. 2025-Jun-07 00:00:00.0000, -3.108457888540391E+08, -1.770064922098530E+08, -3.687507783978358E+05,
2460840.500000000, A.D. 2025-Jun-14 00:00:00.0000, -3.056231770778100E+08, -1.878367355326453E+08, 1.981415493403755E+06,
2460847.500000000, A.D. 2025-Jun-21 00:00:00.0000, -3.000792164282454E+08, -1.984695261900049E+08, 4.329502437435091E+06,
2460854.500000000, A.D. 2025-Jun-28 00:00:00.0000, -2.942225268013171E+08, -2.088955301018391E+08, 6.673081671351224E+06,
2460861.500000000, A.D. 2025-Jul-05 00:00:00.0000, -2.880620059528571E+08, -2.191058663607779E+08, 9.009774390704632E+06,
2460868.500000000, A.D. 2025-Jul-12 00:00:00.0000, -2.816068013561707E+08, -2.290921115095933E+08, 1.133725484515864E+07,
2460875.500000000, A.D. 2025-Jul-19 00:00:00.0000, -2.748662827834649E+08, -2.388463020245993E+08, 1.365325348817347E+07,
2460882.500000000, A.D. 2025-Jul-26 00:00:00.0000, -2.678500155278756E+08, -2.483609351561972E+08, 1.595555977917308E+07,
2460889.500000000, A.D. 2025-Aug-02 00:00:00.0000, -2.605677343164054E+08, -2.576289682062297E+08, 1.824202463979250E+07,
2460896.500000000, A.D. 2025-Aug-09 00:00:00.0000, -2.530293179925536E+08, -2.666438163622117E+08, 2.051056256923793E+07,
2460903.500000000, A.D. 2025-Aug-16 00:00:00.0000, -2.452447649797553E+08, -2.753993492606369E+08, 2.275915341689098E+07,
2460910.500000000, A.D. 2025-Aug-23 00:00:00.0000, -2.372241693077511E+08, -2.838898863745682E+08, 2.498584379868434E+07,
2460917.500000000, A.D. 2025-Aug-30 00:00:00.0000, -2.289776969350846E+08, -2.921101906242901E+08, 2.718874819886954E+07,
2460924.500000000, A.D. 2025-Sep-06 00:00:00.0000, -2.205155638352936E+08, -3.000554593229099E+08, 2.936604998345880E+07,
2460931.500000000, A.D. 2025-Sep-13 00:00:00.0000, -2.118480175545974E+08, -3.077213150513305E+08, 3.151600229080203E+07,
2460938.500000000, A.D. 2025-Sep-20 00:00:00.0000, -2.029853189954751E+08, -3.151037982190404E+08, 3.363692838078390E+07,
2460945.500000000, A.D. 2025-Sep-27 00:00:00.0000, -1.939377233870744E+08, -3.221993583082043E+08, 3.572722161692795E+07,
2460952.500000000, A.D. 2025-Oct-04 00:00:00.0000, -1.847154624687933E+08, -3.290048433646675E+08, 3.778534532772142E+07,
2460959.500000000, A.D. 2025-Oct-11 00:00:00.0000, -1.753287282605576E+08, -3.355174887760949E+08, 3.980983252124076E+07,
2460966.500000000, A.D. 2025-Oct-18 00:00:00.0000, -1.657876581273393E+08, -3.417349057043046E+08, 4.179928542096744E+07,
2460973.500000000, A.D. 2025-Oct-25 00:00:00.0000, -1.561023209825327E+08, -3.476550692497511E+08, 4.375237482693847E+07,
2460980.500000000, A.D. 2025-Nov-01 00:00:00.0000, -1.462827045698415E+08, -3.532763064175715E+08, 4.566783931598584E+07,
2460987.500000000, A.D. 2025-Nov-08 00:00:00.0000, -1.363387037640588E+08, -3.585972839958696E+08, 4.754448429134779E+07,
2460994.500000000, A.D. 2025-Nov-15 00:00:00.0000, -1.262801097135620E+08, -3.636169964776888E+08, 4.938118087881573E+07,
2461001.500000000, A.D. 2025-Nov-22 00:00:00.0000, -1.161165993886964E+08, -3.683347538734827E+08, 5.117686466533971E+07,
2461008.500000000, A.D. 2025-Nov-29 00:00:00.0000, -1.058577256533128E+08, -3.727501683399533E+08, 5.293053440109515E+07,
2461015.500000000, A.D. 2025-Dec-06 00:00:00.0000, -9.551291009860685E+07, -3.768631398152406E+08, 5.464125087598363E+07,
2461022.500000000, A.D. 2025-Dec-13 00:00:00.0000, -8.509143816502145E+07, -3.806738440786502E+08, 5.630813566744761E+07,
2461029.500000000, A.D. 2025-Dec-20 00:00:00.0000, -7.460245301748155E+07, -3.841827222550054E+08, 5.793036953419255E+07,
2461036.500000000, A.D. 2025-Dec-27 00:00:00.0000, -6.405494920528840E+07, -3.873904692092316E+08, 5.950719077630281E+07,
2461043.500000000, A.D. 2026-Jan-03 00:00:00.0000, -5.345776752091087E+07, -3.902980214777861E+08, 6.103789365411571E+07,
2461050.500000000, A.D. 2026-Jan-10 00:00:00.0000, -4.281959090134109E+07, -3.929065454443246E+08, 6.252182680870822E+07,
2461057.500000000, A.D. 2026-Jan-17 00:00:00.0000, -3.214894109382985E+07, -3.952174258781866E+08, 6.395839166388275E+07,
2461064.500000000, A.D. 2026-Jan-24 00:00:00.0000, -2.145417596480720E+07, -3.972322548372929E+08, 6.534704081316401E+07,
2461071.500000000, A.D. 2026-Jan-31 00:00:00.0000, -1.074348738755631E+07, -3.989528209630553E+08, 6.668727639745285E+07,
2461078.500000000, A.D. 2026-Feb-07 00:00:00.0000, -2.489960789158490E+04, -4.003810992402982E+08, 6.797864847062026E+07,
2461085.500000000, A.D. 2026-Feb-14 00:00:00.0000, 1.069373220323963E+07, -4.015192412487318E+08, 6.922075333512199E+07,
2461092.500000000, A.D. 2026-Feb-21 00:00:00.0000, 2.140472363490784E+07, -4.023695653365185E+08, 7.041323186469559E+07,
2461099.500000000, A.D. 2026-Feb-28 00:00:00.0000, 3.210056191032821E+07, -4.029345455669129E+08, 7.155576801235397E+07,
2461106.500000000, A.D. 2026-Mar-07 00:00:00.0000, 4.277390392657197E+07, -4.032168013893273E+08, 7.264808753650720E+07,
2461113.500000000, A.D. 2026-Mar-14 00:00:00.0000, 5.341757427034932E+07, -4.032190903676547E+08, 7.368995650293858E+07,
2461120.500000000, A.D. 2026-Mar-21 00:00:00.0000, 6.402456502590374E+07, -4.029443010684580E+08, 7.468117963930023E+07,
2461127.500000000, A.D. 2026-Mar-28 00:00:00.0000, 7.458803539609909E+07, -4.023954450796643E+08, 7.562159881370141E+07,
2461134.500000000, A.D. 2026-Apr-04 00:00:00.0000, 8.510131056144050E+07, -4.015756491224411E+08, 7.651109161641742E+07,
2461141.500000000, A.D. 2026-Apr-11 00:00:00.0000, 9.555788007778279E+07, -4.004881476116482E+08, 7.734956999225603E+07,
2461148.500000000, A.D. 2026-Apr-18 00:00:00.0000, 1.059513959972492E+08, -3.991362756657100E+08, 7.813697891003194E+07,
2461155.500000000, A.D. 2026-Apr-25 00:00:00.0000, 1.162756707820965E+08, -3.975234625440913E+08, 7.887329506724443E+07,
2461162.500000000, A.D. 2026-May-02 00:00:00.0000, 1.265246750652209E+08, -3.956532255340517E+08, 7.955852562551044E+07,
2461169.500000000, A.D. 2026-May-09 00:00:00.0000, 1.366925354039602E+08, -3.935291643449330E+08, 8.019270696079539E+07,
2461176.500000000, A.D. 2026-May-16 00:00:00.0000, 1.467735324255735E+08, -3.911549558639827E+08, 8.077590340614834E+07,
2461183.500000000, A.D. 2026-May-23 00:00:00.0000, 1.567620994344977E+08, -3.885343482435848E+08, 8.130820606663230E+07,
2461190.500000000, A.D. 2026-May-30 00:00:00.0000, 1.666528194189856E+08, -3.856711539914598E+08, 8.178973192335668E+07,
2461197.500000000, A.D. 2026-Jun-06 00:00:00.0000, 1.764404201545817E+08, -3.825692453266084E+08, 8.222062298736499E+07,
2461204.500000000, A.D. 2026-Jun-13 00:00:00.0000, 1.861197710852986E+08, -3.792325515910272E+08, 8.260104518255682E+07,
2461211.500000000, A.D. 2026-Jun-20 00:00:00.0000, 1.956858814961448E+08, -3.756650557815284E+08, 8.293118724284145E+07,
2461218.500000000, A.D. 2026-Jun-27 00:00:00.0000, 2.051338982915732E+08, -3.718707905337320E+08, 8.321125975207841E+07,
2461225.500000000, A.D. 2026-Jul-04 00:00:00.0000, 2.144591033887745E+08, -3.678538343257021E+08, 8.344149426206592E+07,
2461232.500000000, A.D. 2026-Jul-11 00:00:00.0000, 2.236569109882218E+08, -3.636183080215559E+08, 8.362214245207915E+07,
2461239.500000000, A.D. 2026-Jul-18 00:00:00.0000, 2.327228648246823E+08, -3.591683717180751E+08, 8.375347532335000E+07,
2461246.500000000, A.D. 2026-Jul-25 00:00:00.0000, 2.416526354313596E+08, -3.545082218827137E+08, 8.383578242577581E+07,
2461253.500000000, A.D. 2026-Aug-01 00:00:00.0000, 2.504420174719865E+08, -3.496420888212438E+08, 8.386937110666226E+07,
2461260.500000000, A.D. 2026-Aug-08 00:00:00.0000, 2.590869273630170E+08, -3.445742345005971E+08, 8.385456575735196E+07,
2461267.500000000, A.D. 2026-Aug-15 00:00:00.0000, 2.675834016085696E+08, -3.393089502675129E+08, 8.379170705591473E+07,
2461274.500000000, A.D. 2026-Aug-22 00:00:00.0000, 2.759275950935611E+08, -3.338505532344408E+08, 8.368115137549594E+07,
2461281.500000000, A.D. 2026-Aug-29 00:00:00.0000, 2.841157770499437E+08, -3.282033826982239E+08, 8.352327045544945E+07,
2461288.500000000, A.D. 2026-Sep-05 00:00:00.0000, 2.921443268320532E+08, -3.223717994505568E+08, 8.331845090338296E+07,
2461295.500000000, A.D. 2026-Sep-12 00:00:00.0000, 3.000097319591137E+08, -3.163601854748284E+08, 8.306709350507969E+07,
$$EOE